METOP-B                 
1 38771U 12049A   23027.17212809  .00000181  00000+0  10262-3 0  9999
2 38771  98.7003  88.7699 0001670  99.2835 281.3436 14.21504490537510
METEOR-M2 2             
1 44387U 19038A   23027.12786764  .00000104  00000+0  65009-4 0  9990
2 44387  98.7550 351.4675 0001677  28.1478 331.9794 14.23744682185230
NOAA 15                 
1 25338U 98030A   23027.08092394  .00000247  00000+0  12120-3 0  9991
2 25338  98.6229  58.4404 0010462  11.5665 348.5754 14.26231317285147
NOAA 18                 
1 28654U 05018A   23027.14324272  .00000287  00000+0  17818-3 0  9992
2 28654  98.9256 102.1448 0014995  61.7771 298.4913 14.12849388911659
NOAA 19                 
1 33591U 09005A   23027.17027761  .00000216  00000+0  14164-3 0  9997
2 33591  99.1216  70.7097 0012976 280.1242  79.8466 14.12675650720034
